1 08820U 76039A   03142.58833675  .00000005  00000-0  10000-3 0  9403
2 08820 109.8099 172.8400 0044420 306.8486  52.8140  6.38664372375423
